SPACEMOBILE-006         
1 67232U 25309A   26072.33165154  .00003754  00000+0  19735-3 0  9990
2 67232  52.9943  50.5129 0010431 191.3369 168.7391 15.18041228 12030
